{"type": "FeatureCollection", "features": [ {"type": "Feature", "properties": {"norad_id": 52746, "name": "GHGSAT-C4", "group": "active", "lat": 5.730402462441273, "lon": -70.96704197492188, "alt_km": 474.27573795617354, "timestamp": "2025-12-01T03:58:49.257660+00:00", "meta": {"OBJECT_NAME": "GHGSAT-C4", "OBJECT_ID": "2022-057Q", "EPOCH": "2025-11-30T20:56:56.522688", "MEAN_MOTION": 15.31079333, "ECCENTRICITY": 0.0007904, "INCLINATION": 97.6256, "RA_OF_ASC_NODE": 107.9615, "ARG_OF_PERICENTER": 91.6706, "MEAN_ANOMALY": 268.544, "EPHEMERIS_TYPE": 0, "CLASSIFICATION_TYPE": "U", "NORAD_CAT_ID": 52746, "ELEMENT_SET_NO": 999, "REV_AT_EPOCH": 19516, "BSTAR": 0.00026743, "MEAN_MOTION_DOT": 7.956e-05, "MEAN_MOTION_DDOT": 0, "GROUP": "active"}, "tle": {"line1": "1 52746U 22057Q   25334.87287642  .00007956  00000+0  26743-3 0  9992", "line2": "2 52746  97.6256 107.9615 0007904  91.6706 268.5440 15.31079333195165"}}, "geometry": {"type": "Point", "coordinates": [-70.96704197492188, 5.730402462441273]}}, {"type": "Feature", "properties": {"norad_id": 52747, "name": "NUSAT-28 (ALICE LEE)", "group": "active", "lat": 18.125391967093165, "lon": -65.58248696445361, "alt_km": 382.36223678577517, "timestamp": "2025-12-01T03:58:49.257670+00:00", "meta": {"OBJECT_NAME": "NUSAT-28 (ALICE LEE)", "OBJECT_ID": "2022-057R", "EPOCH": "2025-11-30T21:08:38.205600", "MEAN_MOTION": 15.62777608, "ECCENTRICITY": 0.0004058, "INCLINATION": 97.5035, "RA_OF_ASC_NODE": 111.6424, "ARG_OF_PERICENTER": 311.5673, "MEAN_ANOMALY": 48.5237, "EPHEMERIS_TYPE": 0, "CLASSIFICATION_TYPE": "U", "NORAD_CAT_ID": 52747, "ELEMENT_SET_NO": 999, "REV_AT_EPOCH": 19648, "BSTAR": 0.00089652, "MEAN_MOTION_DOT": 0.00081138, "MEAN_MOTION_DDOT": 0, "GROUP": "active"}, "tle": {"line1": "1 52747U 22057R   25334.88099775  .00081138  00000+0  89652-3 0  9994", "line2": "2 52747  97.5035 111.6424 0004058 311.5673  48.5237 15.62777608196484"}}, "geometry": {"type": "Point", "coordinates": [-65.58248696445361, 18.125391967093165]}}, {"type": "Feature", "properties": {"norad_id": 52752, "name": "NUSAT-31 (RUBY PAYNE-S)", "group": "active", "lat": 50.87964190940944, "lon": -40.483816618229625, "alt_km": 378.41717096932643, "timestamp": "2025-12-01T03:58:49.257680+00:00", "meta": {"OBJECT_NAME": "NUSAT-31 (RUBY PAYNE-S)", "OBJECT_ID": "2022-057W", "EPOCH": "2025-11-30T21:16:54.731712", "MEAN_MOTION": 15.61829999, "ECCENTRICITY": 0.000182, "INCLINATION": 97.6434, "RA_OF_ASC_NODE": 129.7101, "ARG_OF_PERICENTER": 0.4515, "MEAN_ANOMALY": 359.6743, "EPHEMERIS_TYPE": 0, "CLASSIFICATION_TYPE": "U", "NORAD_CAT_ID": 52752, "ELEMENT_SET_NO": 999, "REV_AT_EPOCH": 19643, "BSTAR": 0.00084977, "MEAN_MOTION_DOT": 0.00074049, "MEAN_MOTION_DDOT": 0, "GROUP": "active"}, "tle": {"line1": "1 52752U 22057W   25334.88674458  .00074049  00000+0  84977-3 0  9995", "line2": "2 52752  97.6434 129.7101 0001820   0.4515 359.6743 15.61829999196432"}}, "geometry": {"type": "Point", "coordinates": [-40.483816618229625, 50.87964190940944]}}, {"type": "Feature", "properties": {"norad_id": 52754, "name": "HAWK-5C", "group": "active", "lat": 14.155768160123658, "lon": 116.7069202175317, "alt_km": 435.760806432294, "timestamp": "2025-12-01T03:58:49.257690+00:00", "meta": {"OBJECT_NAME": "HAWK-5C", "OBJECT_ID": "2022-057Y", "EPOCH": "2025-11-30T15:28:03.154080", "MEAN_MOTION": 15.43021126, "ECCENTRICITY": 0.0006495, "INCLINATION": 97.6361, "RA_OF_ASC_NODE": 118.0997, "ARG_OF_PERICENTER": 72.3367, "MEAN_ANOMALY": 287.8588, "EPHEMERIS_TYPE": 0, "CLASSIFICATION_TYPE": "U", "NORAD_CAT_ID": 52754, "ELEMENT_SET_NO": 999, "REV_AT_EPOCH": 19564, "BSTAR": 0.0004069, "MEAN_MOTION_DOT": 0.00017884, "MEAN_MOTION_DDOT": 0, "GROUP": "active"}, "tle": {"line1": "1 52754U 22057Y   25334.64448095  .00017884  00000+0  40690-3 0  9995", "line2": "2 52754  97.6361 118.0997 0006495  72.3367 287.8588 15.43021126195640"}}, "geometry": {"type": "Point", "coordinates": [116.7069202175317, 14.155768160123658]}}, {"type": "Feature", "properties": {"norad_id": 52756, "name": "HAWK-5B", "group": "active", "lat": 15.324568010966138, "lon": 114.89967332693291, "alt_km": 435.20968958505273, "timestamp": "2025-12-01T03:58:49.257700+00:00", "meta": {"OBJECT_NAME": "HAWK-5B", "OBJECT_ID": "2022-057AA", "EPOCH": "2025-11-30T15:27:44.656704", "MEAN_MOTION": 15.43014553, "ECCENTRICITY": 0.0006695, "INCLINATION": 97.6346, "RA_OF_ASC_NODE": 116.4597, "ARG_OF_PERICENTER": 68.6314, "MEAN_ANOMALY": 291.5647, "EPHEMERIS_TYPE": 0, "CLASSIFICATION_TYPE": "U", "NORAD_CAT_ID": 52756, "ELEMENT_SET_NO": 999, "REV_AT_EPOCH": 19564, "BSTAR": 0.00041577, "MEAN_MOTION_DOT": 0.00018274, "MEAN_MOTION_DDOT": 0, "GROUP": "active"}, "tle": {"line1": "1 52756U 22057AA  25334.64426686  .00018274  00000+0  41577-3 0  9998", "line2": "2 52756  97.6346 116.4597 0006695  68.6314 291.5647 15.43014553195649"}}, "geometry": {"type": "Point", "coordinates": [114.89967332693291, 15.324568010966138]}}, {"type": "Feature", "properties": {"norad_id": 52757, "name": "HAWK-5A", "group": "active", "lat": 16.721153728288126, "lon": 115.5180574742254, "alt_km": 434.9170947919429, "timestamp": "2025-12-01T03:58:49.257709+00:00", "meta": {"OBJECT_NAME": "HAWK-5A", "OBJECT_ID": "2022-057AB", "EPOCH": "2025-11-30T15:27:22.891680", "MEAN_MOTION": 15.43019553, "ECCENTRICITY": 0.0006889, "INCLINATION": 97.6356, "RA_OF_ASC_NODE": 117.281, "ARG_OF_PERICENTER": 70.4028, "MEAN_ANOMALY": 289.7962, "EPHEMERIS_TYPE": 0, "CLASSIFICATION_TYPE": "U", "NORAD_CAT_ID": 52757, "ELEMENT_SET_NO": 999, "REV_AT_EPOCH": 19564, "BSTAR": 0.00042335, "MEAN_MOTION_DOT": 0.00018614, "MEAN_MOTION_DDOT": 0, "GROUP": "active"}, "tle": {"line1": "1 52757U 22057AB  25334.64401495  .00018614  00000+0  42335-3 0  9991", "line2": "2 52757  97.6356 117.2810 0006889  70.4028 289.7962 15.43019553195640"}}, "geometry": {"type": "Point", "coordinates": [115.5180574742254, 16.721153728288126]}}, {"type": "Feature", "properties": {"norad_id": 52760, "name": "VIGORIDE-3", "group": "active", "lat": -48.56910335709091, "lon": -83.08199118965524, "alt_km": 503.90129227556827, "timestamp": "2025-12-01T03:58:49.257719+00:00", "meta": {"OBJECT_NAME": "VIGORIDE-3", "OBJECT_ID": "2022-057AE", "EPOCH": "2025-11-30T19:06:11.738016", "MEAN_MOTION": 15.2454206, "ECCENTRICITY": 0.0010572, "INCLINATION": 97.6333, "RA_OF_ASC_NODE": 105.2816, "ARG_OF_PERICENTER": 98.409, "MEAN_ANOMALY": 261.8346, "EPHEMERIS_TYPE": 0, "CLASSIFICATION_TYPE": "U", "NORAD_CAT_ID": 52760, "ELEMENT_SET_NO": 999, "REV_AT_EPOCH": 19490, "BSTAR": 0.00025949, "MEAN_MOTION_DOT": 6.322e-05, "MEAN_MOTION_DDOT": 0, "GROUP": "active"}, "tle": {"line1": "1 52760U 22057AE  25334.79596919  .00006322  00000+0  25949-3 0  9992", "line2": "2 52760  97.6333 105.2816 0010572  98.4090 261.8346 15.24542060194903"}}, "geometry": {"type": "Point", "coordinates": [-83.08199118965524, -48.56910335709091]}}, {"type": "Feature", "properties": {"norad_id": 52761, "name": "ION SCV-006", "group": "active", "lat": 35.14944372879369, "lon": -64.17872929809285, "alt_km": 433.03905088249394, "timestamp": "2025-12-01T03:58:49.257729+00:00", "meta": {"OBJECT_NAME": "ION SCV-006", "OBJECT_ID": "2022-057AF", "EPOCH": "2025-11-30T19:33:29.844000", "MEAN_MOTION": 15.39729922, "ECCENTRICITY": 0.0021073, "INCLINATION": 97.5846, "RA_OF_ASC_NODE": 110.0743, "ARG_OF_PERICENTER": 109.1756, "MEAN_ANOMALY": 251.1772, "EPHEMERIS_TYPE": 0, "CLASSIFICATION_TYPE": "U", "NORAD_CAT_ID": 52761, "ELEMENT_SET_NO": 999, "REV_AT_EPOCH": 19553, "BSTAR": 0.0003512, "MEAN_MOTION_DOT": 0.00013915, "MEAN_MOTION_DDOT": 0, "GROUP": "active"}, "tle": {"line1": "1 52761U 22057AF  25334.81492875  .00013915  00000+0  35120-3 0  9990", "line2": "2 52761  97.5846 110.0743 0021073 109.1756 251.1772 15.39729922195537"}}, "geometry": {"type": "Point", "coordinates": [-64.17872929809285, 35.14944372879369]}}, {"type": "Feature", "properties": {"norad_id": 52763, "name": "SHERPA-AC1", "group": "active", "lat": 9.950124117816413, "lon": 110.68374068675783, "alt_km": 467.4162131131252, "timestamp": "2025-12-01T03:58:49.257739+00:00", "meta": {"OBJECT_NAME": "SHERPA-AC1", "OBJECT_ID": "2022-057AH", "EPOCH": "2025-11-30T20:06:05.894208", "MEAN_MOTION": 15.32559907, "ECCENTRICITY": 0.0009459, "INCLINATION": 97.6408, "RA_OF_ASC_NODE": 111.6944, "ARG_OF_PERICENTER": 79.093, "MEAN_ANOMALY": 281.1375, "EPHEMERIS_TYPE": 0, "CLASSIFICATION_TYPE": "U", "NORAD_CAT_ID": 52763, "ELEMENT_SET_NO": 999, "REV_AT_EPOCH": 19528, "BSTAR": 0.00028795, "MEAN_MOTION_DOT": 8.984e-05, "MEAN_MOTION_DDOT": 0, "GROUP": "active"}, "tle": {"line1": "1 52763U 22057AH  25334.83756822  .00008984  00000+0  28795-3 0  9999", "line2": "2 52763  97.6408 111.6944 0009459  79.0930 281.1375 15.32559907195288"}}, "geometry": {"type": "Point", "coordinates": [110.68374068675783, 9.950124117816413]}}, {"type": "Feature", "properties": {"norad_id": 52764, "name": "NUSAT-29 (EDITH CLARKE)", "group": "active", "lat": 71.60923766802699, "lon": 94.81240996361682, "alt_km": 279.49465874940597, "timestamp": "2025-12-01T03:58:49.257749+00:00", "meta": {"OBJECT_NAME": "NUSAT-29 (EDITH CLARKE)", "OBJECT_ID": "2022-057AJ", "EPOCH": "2025-11-30T20:09:20.054880", "MEAN_MOTION": 15.96799447, "ECCENTRICITY": 0.0006366, "INCLINATION": 97.4923, "RA_OF_ASC_NODE": 117.7687, "ARG_OF_PERICENTER": 277.174, "MEAN_ANOMALY": 82.8812, "EPHEMERIS_TYPE": 0, "CLASSIFICATION_TYPE": "U", "NORAD_CAT_ID": 52764, "ELEMENT_SET_NO": 999, "REV_AT_EPOCH": 19696, "BSTAR": 0.001186, "MEAN_MOTION_DOT": 0.00502999, "MEAN_MOTION_DDOT": 0.0001073, "GROUP": "active"}, "tle": {"line1": "1 52764U 22057AJ  25334.83981545  .00502999  10730-3  11860-2 0  9996", "line2": "2 52764  97.4923 117.7687 0006366 277.1740  82.8812 15.96799447196967"}}, "geometry": {"type": "Point", "coordinates": [94.81240996361682, 71.60923766802699]}}]}